API VERSION: 1.2
API SOURCE: NASA/JPL Horizons API



*******************************************************************************
Ephemeris / API_USER Sun Dec 15 22:23:18 2024 Pasadena, USA      / Horizons
*******************************************************************************
Target body name: Mars Barycenter (4)             {source: DE441}
Center body name: Solar System Barycenter (0)     {source: DE441}
Center-site name: BODY CENTER
*******************************************************************************
Start time      : A.D. 2001-Jan-27 00:00:00.0000 TDB
Stop  time      : A.D. 2005-Oct-10 00:00:00.0000 TDB
Step-size       : 7200 minutes
*******************************************************************************
Center geodetic : 0.0, 0.0, 0.0                   {E-lon(deg),Lat(deg),Alt(km)}
Center cylindric: 0.0, 0.0, 0.0                   {E-lon(deg),Dxy(km),Dz(km)}
Center radii    : (undefined)
Output units    : KM-S
Calendar mode   : Mixed Julian/Gregorian
Output type     : GEOMETRIC cartesian states
Output format   : 2 (position and velocity)
Reference frame : Ecliptic of J2000.0
*******************************************************************************
            JDTDB,            Calendar Date (TDB),                      X,                      Y,                      Z,                     VX,                     VY,                     VZ,
**************************************************************************************************************************************************************************************************
$$SOE
2451936.500000000, A.D. 2001-Jan-27 00:00:00.0000, -2.376556750572091E+08, -5.854009347414402E+07,  4.637022863874260E+06,  6.663510459533742E+00, -2.147864940058864E+01, -6.135269487509012E-01,
2451941.500000000, A.D. 2001-Feb-01 00:00:00.0000, -2.345752985668148E+08, -6.776681987003662E+07,  4.368110657878298E+06,  7.596635694732996E+00, -2.123127352090764E+01, -6.312818020316522E-01,
2451946.500000000, A.D. 2001-Feb-06 00:00:00.0000, -2.310930204531999E+08, -7.687836490333545E+07,  4.091732232225113E+06,  8.523935639031611E+00, -2.094536456982541E+01, -6.480863245651740E-01,
2451951.500000000, A.D. 2001-Feb-11 00:00:00.0000, -2.272116590748841E+08, -8.585803535768208E+07,  3.808306530911103E+06,  9.444005618733271E+00, -2.062071011399460E+01, -6.639015440786640E-01,
2451956.500000000, A.D. 2001-Feb-16 00:00:00.0000, -2.229346492021290E+08, -9.468905277768485E+07,  3.518269432942860E+06,  1.035539624747680E+01, -2.025712859538958E+01, -6.786880359424670E-01,
2451961.500000000, A.D. 2001-Feb-21 00:00:00.0000, -2.182660617122482E+08, -1.033545676540367E+08,  3.222073939249426E+06,  1.125661169841521E+01, -1.985447331204492E+01, -6.924059644948830E-01,
2451966.500000000, A.D. 2001-Feb-26 00:00:00.0000, -2.132106239912789E+08, -1.118376754060436E+08,  2.920190339169882E+06,  1.214610816822582E+01, -1.941263675991876E+01, -7.050151363976687E-01,
2451971.500000000, A.D. 2001-Mar-03 00:00:00.0000, -2.077737409504874E+08, -1.201214343191021E+08,  2.613106351144679E+06,  1.302229257392191E+01, -1.893155534281296E+01, -7.164750668798332E-01,
2451976.500000000, A.D. 2001-Mar-08 00:00:00.0000, -2.019615165473655E+08, -1.281888855976479E+08,  2.301327231770866E+06,  1.388352152835160E+01, -1.841121445774315E+01, -7.267450602555270E-01,
2451981.500000000, A.D. 2001-Mar-13 00:00:00.0000, -1.957807756805678E+08, -1.360230756977382E+08,  1.985375846632749E+06,  1.472810064105761E+01, -1.785165396485774E+01, -7.357843067098937E-01,
2451986.500000000, A.D. 2001-Mar-18 00:00:00.0000, -1.892390863084873E+08, -1.436070811067879E+08,  1.665792695489593E+06,  1.555428418973156E+01, -1.725297404706865E+01, -7.435519970290230E-01,
2451991.500000000, A.D. 2001-Mar-23 00:00:00.0000, -1.823447816208916E+08, -1.509240357382322E+08,  1.343135883861519E+06,  1.636027521222642E+01, -1.661534145510698E+01, -7.500074561340586E-01,
2451996.500000000, A.D. 2001-Mar-28 00:00:00.0000, -1.751069820694426E+08, -1.579571611053773E+08,  1.017981032728456E+06,  1.714422607836628E+01, -1.593899612688833E+01, -7.551102962301313E-01,
2452001.500000000, A.D. 2001-Apr-02 00:00:00.0000, -1.675356170359083E+08, -1.646897994330555E+08,  6.909211176174879E+05,  1.790423960656016E+01, -1.522425816628265E+01, -7.588205907968595E-01,
2452006.500000000, A.D. 2001-Apr-07 00:00:00.0000, -1.596414458882911E+08, -1.711054498582412E+08,  3.625662277717441E+05,  1.863837079213683E+01, -1.447153516108597E+01, -7.610990708122731E-01,
2452011.500000000, A.D. 2001-Apr-12 00:00:00.0000, -1.514360781459852E+08, -1.771878078602878E+08,  3.354323552992940E+04,  1.934462921526428E+01, -1.368132981129379E+01, -7.619073443835740E-01,
2452016.500000000, A.D. 2001-Apr-17 00:00:00.0000, -1.429319924455267E+08, -1.829208080465046E+08, -2.955046343676224E+05,  2.002098219749778E+01, -1.285424782680469E+01, -7.612081404864925E-01,
2452021.500000000, A.D. 2001-Apr-22 00:00:00.0000, -1.341425539681931E+08, -1.882886703978985E+08, -6.239183459990323E+05,  2.066535877860297E+01, -1.199100603815744E+01, -7.589655768760366E-01,
2452026.500000000, A.D. 2001-Apr-27 00:00:00.0000, -1.250820299586569E+08, -1.932759500518305E+08, -9.510237143591642E+05,  2.127565459098381E+01, -1.109244064684211E+01, -7.551454517014027E-01,
2452031.500000000, A.D. 2001-May-02 00:00:00.0000, -1.157656029287684E+08, -1.978675906635226E+08, -1.276132198480964E+06,  2.184973771708155E+01, -1.015951552871775E+01, -7.497155584888007E-01,
2452036.500000000, A.D. 2001-May-07 00:00:00.0000, -1.062093811025611E+08, -2.020489813499126E+08, -1.598541835788399E+06,  2.238545561847700E+01, -9.193330500899979E+00, -7.426460252591944E-01,
2452041.500000000, A.D. 2001-May-12 00:00:00.0000, -9.643040562213825E+07, -2.058060171815392E+08, -1.917538328504562E+06,  2.288064321349642E+01, -8.195129466911688E+00, -7.339096797178035E-01,
2452046.500000000, A.D. 2001-May-17 00:00:00.0000, -8.644665400649637E+07, -2.091251631506440E+08, -2.232396293723449E+06,  2.333313215306002E+01, -7.166308347785783E+00, -7.234824418090318E-01,
2452051.500000000, A.D. 2001-May-22 00:00:00.0000, -7.627703933928482E+07, -2.119935214979332E+08, -2.542380688838080E+06,  2.374076132169017E+01, -6.108422676602424E+00, -7.113437426144573E-01,
2452056.500000000, A.D. 2001-May-27 00:00:00.0000, -6.594140465211873E+07, -2.143989022191952E+08, -2.846748423063979E+06,  2.410138858216190E+01, -5.023194696142093E+00, -6.974769663350053E-01,
2452061.500000000, A.D. 2001-Jun-01 00:00:00.0000, -5.546051196276060E+07, -2.163298964974068E+08, -3.144750164094761E+06,  2.441290377886765E+01, -3.912519772268977E+00, -6.818699108899735E-01,
2452066.500000000, A.D. 2001-Jun-06 00:00:00.0000, -4.485602542258152E+07, -2.177759527211911E+08, -3.435632346841753E+06,  2.467324300612465E+01, -2.778471919713930E+00, -6.645152619825944E-01,
2452071.500000000, A.D. 2001-Jun-11 00:00:00.0000, -3.415048802863801E+07, -2.187274546606795E+08, -3.718639388823420E+06,  2.488040412927873E+01, -1.623308228203890E+00, -6.454110746395501E-01,
2452076.500000000, A.D. 2001-Jun-16 00:00:00.0000, -2.336729136614794E+07, -2.191758012783601E+08, -3.993016113908514E+06,  2.503246352223520E+01, -4.494719685303772E-01, -6.245612549990639E-01,
2452081.500000000, A.D. 2001-Jun-21 00:00:00.0000, -1.253063786816660E+07, -2.191134875567231E+08, -4.258010382871866E+06,  2.512759395980524E+01,  7.404058422502451E-01, -6.019760347441550E-01,
2452086.500000000, A.D. 2001-Jun-26 00:00:00.0000, -1.665495112711634E+06, -2.185341856312942E+08, -4.512875925999969E+06,  2.516408356975124E+01,  1.943506625737820E+00, -5.776724308815767E-01,
2452091.500000000, A.D. 2001-Jul-01 00:00:00.0000,  9.202458271944057E+06, -2.174328254306262E+08, -4.756875369841039E+06,  2.514035570402582E+01,  3.156826370944378E+00, -5.516746835497155E-01,
2452096.500000000, A.D. 2001-Jul-06 00:00:00.0000,  2.004689545077106E+07, -2.158056739438933E+08, -4.989283447018802E+06,  2.505498953392213E+01,  4.377179889305384E+00, -5.240146644985391E-01,
2452101.500000000, A.D. 2001-Jul-11 00:00:00.0000,  3.084091323520289E+07, -2.136504121583320E+08, -5.209390374803230E+06,  2.490674112187608E+01,  5.601207377811251E+00, -4.947322485485963E-01,
2452106.500000000, A.D. 2001-Jul-16 00:00:00.0000,  4.155711309155208E+07, -2.109662086309031E+08, -5.416505384659886E+06,  2.469456468438981E+01,  6.825383465872211E+00, -4.638756396337920E-01,
2452111.500000000, A.D. 2001-Jul-21 00:00:00.0000,  5.216769131936303E+07, -2.077537885873283E+08, -5.609960381121546E+06,  2.441763372652915E+01,  8.046028897742350E+00, -4.315016416961459E-01,
2452116.500000000, A.D. 2001-Jul-26 00:00:00.0000,  6.264453826952543E+07, -2.040154973833627E+08, -5.789113703751728E+06,  2.407536169736104E+01,  9.259324966534340E+00, -3.976758630977075E-01,
2452121.500000000, A.D. 2001-Jul-31 00:00:00.0000,  7.295934631439069E+07, -1.997553571231229E+08, -5.953353960944563E+06,  2.366742178764575E+01,  1.046133076703241E+01, -3.624728428968016E-01,
2452126.500000000, A.D. 2001-Aug-05 00:00:00.0000,  8.308372611288090E+07, -1.949791152125500E+08, -6.102103899414167E+06,  2.319376546591816E+01,  1.164800327660974E+01, -3.259760880472653E-01,
2452131.500000000, A.D. 2001-Aug-10 00:00:00.0000,  9.298933053527655E+07, -1.896942836360363E+08, -6.234824268712983E+06,  2.265463933303682E+01,  1.281522020682606E+01, -2.882780116652262E-01,
2452136.500000000, A.D. 2001-Aug-15 00:00:00.0000,  1.026479854289469E+08, -1.839101677853134E+08, -6.351017636186004E+06,  2.205059986692855E+01,  1.395880549254286E+01, -2.494797640449766E-01,
2452141.500000000, A.D. 2001-Aug-20 00:00:00.0000,  1.120318262209469E+08, -1.776378837431703E+08, -6.450232104532346E+06,  2.138252562996330E+01,  1.507455721241215E+01, -2.096909498211357E-01,
2452146.500000000, A.D. 2001-Aug-25 00:00:00.0000,  1.211134391715988E+08, -1.708903630290641E+08, -6.532064881759115E+06,  2.065162652752614E+01,  1.615827766266414E+01, -1.690292269230733E-01,
